{"dragon": {"capsule": "5e9e2c5df359188aba3b2676", "mass_returned_kg": 150, "mass_returned_lbs": 330.7, "flight_time_sec": 5527500, "manifest": null, "water_landing": true, "land_landing": false}, "name": "CCtCap Demo Mission 2", "type": "Crew Dragon", "reused": false, "launch": "5eb87d46ffd86e000604b388", "customers": ["NASA (CCtCap)"], "norad_ids": [45623], "nationalities": ["United States"], "manufacturers": ["SpaceX"], "mass_kg": 9525, "mass_lbs": 20999.03, "orbit": "ISS", "reference_system": "geocentric", "regime": "low-earth", "longitude": null, "semi_major_axis_km": 6637.784, "eccentricity": 0.0155448, "periapsis_km": 156.466, "apoapsis_km": 362.832, "inclination_deg": 51.6858, "period_min": 89.7, "lifespan_years": null, "epoch": "2020-08-02T11:41:07.000Z", "mean_motion": 16.05343597, "raan": 119.2669, "arg_of_pericenter": 11.5318, "mean_anomaly": 170.7584, "id": "5eb0e4d1b6c3bb0006eeb257"}